MTI                     
1 26102U 00014A   20088.18064646  .00003563  00000-0  54353-4 0  9990
2 26102  97.5166 326.2961 0008131 154.3558 205.8099 15.55167833111886
CFESAT                  
1 30777U 07006F   20088.19450106  .00002281  00000-0  64299-4 0  9998
2 30777  35.4242 113.6567 0005258 184.9327 175.1349 15.36314432723957
SPIRALE A               
1 33751U 09008C   20087.79059253  .00000044  00000-0  23810-3 0  9998
2 33751   2.0489 289.4165 5382300 181.1027 176.5333  4.58734469157539
SPIRALE B               
1 33752U 09008D   20085.87595543  .00002824  00000-0  61073-3 0  9994
2 33752   1.8661 192.1382 6918401   5.3348 359.2462  2.75403122102495
SAPPHIRE                
1 39088U 13009C   20088.20820252 -.00000030  00000-0  45719-5 0  9995
2 39088  98.4767 291.2151 0011725 161.4664 198.6950 14.34204949370835
